{"type": "FeatureCollection", "features": [ {"type": "Feature", "properties": {"norad_id": 66446, "name": "STARLINK-34986", "group": "last-30-days", "lat": -38.65233995277322, "lon": 34.4563461904411, "alt_km": 417.47137051147274, "timestamp": "2025-12-04T19:33:58.448179+00:00", "meta": {"OBJECT_NAME": "STARLINK-34986", "OBJECT_ID": "2025-259AA", "EPOCH": "2025-12-04T08:00:01.999872", "MEAN_MOTION": 15.50581927, "ECCENTRICITY": 0.0001621, "INCLINATION": 43.0003, "RA_OF_ASC_NODE": 96.3986, "ARG_OF_PERICENTER": 255.6221, "MEAN_ANOMALY": 224.8282, "EPHEMERIS_TYPE": 0, "CLASSIFICATION_TYPE": "U", "NORAD_CAT_ID": 66446, "ELEMENT_SET_NO": 999, "REV_AT_EPOCH": 492, "BSTAR": -0.0010461988, "MEAN_MOTION_DOT": -0.00061246, "MEAN_MOTION_DDOT": 0}, "tle": {"line1": "1 66446U 25259AA  25338.33335648 -.00061246  00000+0 -10462-2 0  9990", "line2": "2 66446  43.0003  96.3986 0001621 255.6221 224.8282 15.50581927  4928"}}, "geometry": {"type": "Point", "coordinates": [34.4563461904411, -38.65233995277322]}}, {"type": "Feature", "properties": {"norad_id": 66447, "name": "STARLINK-34851", "group": "last-30-days", "lat": -37.226647057299004, "lon": 38.9503714131633, "alt_km": 417.61332192517693, "timestamp": "2025-12-04T19:33:58.448189+00:00", "meta": {"OBJECT_NAME": "STARLINK-34851", "OBJECT_ID": "2025-259AB", "EPOCH": "2025-12-04T08:00:01.999872", "MEAN_MOTION": 15.50571494, "ECCENTRICITY": 0.00012262, "INCLINATION": 43.0005, "RA_OF_ASC_NODE": 96.3894, "ARG_OF_PERICENTER": 258.5039, "MEAN_ANOMALY": 225.7841, "EPHEMERIS_TYPE": 0, "CLASSIFICATION_TYPE": "U", "NORAD_CAT_ID": 66447, "ELEMENT_SET_NO": 999, "REV_AT_EPOCH": 482, "BSTAR": -0.00074500544, "MEAN_MOTION_DOT": -0.00043791, "MEAN_MOTION_DDOT": 0}, "tle": {"line1": "1 66447U 25259AB  25338.33335648 -.00043791  00000+0 -74501-3 0  9991", "line2": "2 66447  43.0005  96.3894 0001226 258.5039 225.7841 15.50571494  4827"}}, "geometry": {"type": "Point", "coordinates": [38.9503714131633, -37.226647057299004]}}, {"type": "Feature", "properties": {"norad_id": 66448, "name": "STARLINK-35355", "group": "last-30-days", "lat": -36.45028018736044, "lon": 41.13385367170823, "alt_km": 417.51871795804345, "timestamp": "2025-12-04T19:33:58.448198+00:00", "meta": {"OBJECT_NAME": "STARLINK-35355", "OBJECT_ID": "2025-259AC", "EPOCH": "2025-12-04T08:00:01.999872", "MEAN_MOTION": 15.505936, "ECCENTRICITY": 0.00013644, "INCLINATION": 43.0004, "RA_OF_ASC_NODE": 96.3849, "ARG_OF_PERICENTER": 264.8846, "MEAN_ANOMALY": 221.3216, "EPHEMERIS_TYPE": 0, "CLASSIFICATION_TYPE": "U", "NORAD_CAT_ID": 66448, "ELEMENT_SET_NO": 999, "REV_AT_EPOCH": 492, "BSTAR": -0.0015311088, "MEAN_MOTION_DOT": -0.00089194, "MEAN_MOTION_DDOT": 0}, "tle": {"line1": "1 66448U 25259AC  25338.33335648 -.00089194  00000+0 -15311-2 0  9992", "line2": "2 66448  43.0004  96.3849 0001364 264.8846 221.3216 15.50593600  4928"}}, "geometry": {"type": "Point", "coordinates": [41.13385367170823, -36.45028018736044]}}, {"type": "Feature", "properties": {"norad_id": 66449, "name": "STARLINK-34720", "group": "last-30-days", "lat": -35.635156392837715, "lon": 43.2717560413882, "alt_km": 417.50296833642915, "timestamp": "2025-12-04T19:33:58.448207+00:00", "meta": {"OBJECT_NAME": "STARLINK-34720", "OBJECT_ID": "2025-259AD", "EPOCH": "2025-12-04T08:00:01.999872", "MEAN_MOTION": 15.5059259, "ECCENTRICITY": 0.0001441, "INCLINATION": 43.0005, "RA_OF_ASC_NODE": 96.3797, "ARG_OF_PERICENTER": 258.3605, "MEAN_ANOMALY": 229.7574, "EPHEMERIS_TYPE": 0, "CLASSIFICATION_TYPE": "U", "NORAD_CAT_ID": 66449, "ELEMENT_SET_NO": 999, "REV_AT_EPOCH": 482, "BSTAR": -0.0014261325, "MEAN_MOTION_DOT": -0.00083163, "MEAN_MOTION_DDOT": 0}, "tle": {"line1": "1 66449U 25259AD  25338.33335648 -.00083163  00000+0 -14261-2 0  9996", "line2": "2 66449  43.0005  96.3797 0001441 258.3605 229.7574 15.50592590  4824"}}, "geometry": {"type": "Point", "coordinates": [43.2717560413882, -35.635156392837715]}}, {"type": "Feature", "properties": {"norad_id": 66450, "name": "STARLINK-35334", "group": "last-30-days", "lat": -34.78265494630929, "lon": 45.36533587830093, "alt_km": 417.345898793802, "timestamp": "2025-12-04T19:33:58.448216+00:00", "meta": {"OBJECT_NAME": "STARLINK-35334", "OBJECT_ID": "2025-259AE", "EPOCH": "2025-12-04T08:00:01.999872", "MEAN_MOTION": 15.50577827, "ECCENTRICITY": 0.00014618, "INCLINATION": 43.0004, "RA_OF_ASC_NODE": 96.3744, "ARG_OF_PERICENTER": 266.4908, "MEAN_ANOMALY": 223.5475, "EPHEMERIS_TYPE": 0, "CLASSIFICATION_TYPE": "U", "NORAD_CAT_ID": 66450, "ELEMENT_SET_NO": 999, "REV_AT_EPOCH": 492, "BSTAR": -0.00093263327, "MEAN_MOTION_DOT": -0.00054672, "MEAN_MOTION_DDOT": 0}, "tle": {"line1": "1 66450U 25259AE  25338.33335648 -.00054672  00000+0 -93263-3 0  9991", "line2": "2 66450  43.0004  96.3744 0001461 266.4908 223.5475 15.50577827  4924"}}, "geometry": {"type": "Point", "coordinates": [45.36533587830093, -34.78265494630929]}}, {"type": "Feature", "properties": {"norad_id": 66454, "name": "VIASAT-3 F2", "group": "last-30-days", "lat": -3.226303540101771, "lon": -102.11754102654912, "alt_km": 21738.354456808247, "timestamp": "2025-12-04T19:33:58.448228+00:00", "meta": {"OBJECT_NAME": "VIASAT-3 F2", "OBJECT_ID": "2025-261A", "EPOCH": "2025-12-04T01:07:27.782112", "MEAN_MOTION": 2.28102609, "ECCENTRICITY": 0.23421394, "INCLINATION": 5.5724, "RA_OF_ASC_NODE": 293.1352, "ARG_OF_PERICENTER": 184.2254, "MEAN_ANOMALY": 209.6829, "EPHEMERIS_TYPE": 0, "CLASSIFICATION_TYPE": "U", "NORAD_CAT_ID": 66454, "ELEMENT_SET_NO": 999, "REV_AT_EPOCH": 45, "BSTAR": 0, "MEAN_MOTION_DOT": -5.6e-07, "MEAN_MOTION_DDOT": 0}, "tle": {"line1": "1 66454U 25261A   25338.04684933 -.00000056  00000+0  00000+0 0  9999", "line2": "2 66454   5.5724 293.1352 2342139 184.2254 209.6829  2.28102609   450"}}, "geometry": {"type": "Point", "coordinates": [-102.11754102654912, -3.226303540101771]}}, {"type": "Feature", "properties": {"norad_id": 66455, "name": "ATLAS 5 CENTAUR R/B", "group": "last-30-days", "lat": -4.016980100156485, "lon": -108.08521137029346, "alt_km": 21169.608096348577, "timestamp": "2025-12-04T19:33:58.448240+00:00", "meta": {"OBJECT_NAME": "ATLAS 5 CENTAUR R/B", "OBJECT_ID": "2025-261B", "EPOCH": "2025-12-04T01:05:50.436960", "MEAN_MOTION": 2.28259399, "ECCENTRICITY": 0.23296289, "INCLINATION": 6.1572, "RA_OF_ASC_NODE": 292.4855, "ARG_OF_PERICENTER": 184.7362, "MEAN_ANOMALY": 200.5822, "EPHEMERIS_TYPE": 0, "CLASSIFICATION_TYPE": "U", "NORAD_CAT_ID": 66455, "ELEMENT_SET_NO": 999, "REV_AT_EPOCH": 45, "BSTAR": 0, "MEAN_MOTION_DOT": -5.6e-07, "MEAN_MOTION_DDOT": 0}, "tle": {"line1": "1 66455U 25261B   25338.04572265 -.00000056  00000+0  00000+0 0  9994", "line2": "2 66455   6.1572 292.4855 2329628 184.7362 200.5822  2.28259399   454"}}, "geometry": {"type": "Point", "coordinates": [-108.08521137029346, -4.016980100156485]}}, {"type": "Feature", "properties": {"norad_id": 66456, "name": "STARLINK-35643", "group": "last-30-days", "lat": -15.295386966968117, "lon": 100.41280089226727, "alt_km": 407.17165395540087, "timestamp": "2025-12-04T19:33:58.448249+00:00", "meta": {"OBJECT_NAME": "STARLINK-35643", "OBJECT_ID": "2025-262A", "EPOCH": "2025-12-04T08:00:01.999872", "MEAN_MOTION": 15.55859726, "ECCENTRICITY": 0.00012153, "INCLINATION": 42.9996, "RA_OF_ASC_NODE": 120.3167, "ARG_OF_PERICENTER": 274.0077, "MEAN_ANOMALY": 242.8194, "EPHEMERIS_TYPE": 0, "CLASSIFICATION_TYPE": "U", "NORAD_CAT_ID": 66456, "ELEMENT_SET_NO": 999, "REV_AT_EPOCH": 428, "BSTAR": -0.033960467, "MEAN_MOTION_DOT": -0.02141866, "MEAN_MOTION_DDOT": 0}, "tle": {"line1": "1 66456U 25262A   25338.33335648 -.02141866  00000+0 -33960-1 0  9991", "line2": "2 66456  42.9996 120.3167 0001215 274.0077 242.8194 15.55859726  4281"}}, "geometry": {"type": "Point", "coordinates": [100.41280089226727, -15.295386966968117]}}, {"type": "Feature", "properties": {"norad_id": 66457, "name": "STARLINK-35466", "group": "last-30-days", "lat": -12.777835384427297, "lon": 103.38424224377401, "alt_km": 407.1117516813965, "timestamp": "2025-12-04T19:33:58.448258+00:00", "meta": {"OBJECT_NAME": "STARLINK-35466", "OBJECT_ID": "2025-262B", "EPOCH": "2025-12-04T08:00:01.999872", "MEAN_MOTION": 15.55858827, "ECCENTRICITY": 0.00011962, "INCLINATION": 42.9996, "RA_OF_ASC_NODE": 120.3072, "ARG_OF_PERICENTER": 267.9123, "MEAN_ANOMALY": 252.7505, "EPHEMERIS_TYPE": 0, "CLASSIFICATION_TYPE": "U", "NORAD_CAT_ID": 66457, "ELEMENT_SET_NO": 999, "REV_AT_EPOCH": 428, "BSTAR": -0.03395189, "MEAN_MOTION_DOT": -0.02141309, "MEAN_MOTION_DDOT": 0}, "tle": {"line1": "1 66457U 25262B   25338.33335648 -.02141309  00000+0 -33952-1 0  9995", "line2": "2 66457  42.9996 120.3072 0001196 267.9123 252.7505 15.55858827  4285"}}, "geometry": {"type": "Point", "coordinates": [103.38424224377401, -12.777835384427297]}}, {"type": "Feature", "properties": {"norad_id": 66458, "name": "STARLINK-35684", "group": "last-30-days", "lat": -14.0406145477708, "lon": 101.90696525209748, "alt_km": 407.2587524148721, "timestamp": "2025-12-04T19:33:58.448269+00:00", "meta": {"OBJECT_NAME": "STARLINK-35684", "OBJECT_ID": "2025-262C", "EPOCH": "2025-12-04T08:00:01.999872", "MEAN_MOTION": 15.55859094, "ECCENTRICITY": 0.00012085, "INCLINATION": 42.9995, "RA_OF_ASC_NODE": 120.3116, "ARG_OF_PERICENTER": 265.5392, "MEAN_ANOMALY": 253.2068, "EPHEMERIS_TYPE": 0, "CLASSIFICATION_TYPE": "U", "NORAD_CAT_ID": 66458, "ELEMENT_SET_NO": 999, "REV_AT_EPOCH": 428, "BSTAR": -0.033967513, "MEAN_MOTION_DOT": -0.02142211, "MEAN_MOTION_DDOT": 0}, "tle": {"line1": "1 66458U 25262C   25338.33335648 -.02142211  00000+0 -33968-1 0  9996", "line2": "2 66458  42.9995 120.3116 0001208 265.5392 253.2068 15.55859094  4287"}}, "geometry": {"type": "Point", "coordinates": [101.90696525209748, -14.0406145477708]}}]}